{
"type": "FeatureCollection",
"name": "missing-substations-us-osm",
"crs": { "type": "name", "properties": { "name": "urn:ogc:def:crs:OGC:1.3:CRS84" } },
"features": [
{ "type": "Feature", "properties": { "HIFLD_ID": null, "SubID": "S-0837", "HIFLD_Name": null, "Name": "Blackwell Road Option 1", "StateShort": "VA", "StateFull": "Virginia", "latitude": "38.6983708521", "longitude": "-77.782277028", "CurrentMax": "0", "CurrentMin": null, "PlanProj": "Blackwell Road 230 kV Project", "PlanVolt": "230", "HIFLD": "New build, not listed in HIFLD", "ExistNew": "New build", "InPlanned": "Yes" }, "geometry": { "type": "Point", "coordinates": [ -77.782277028020005, 38.698370852119993 ] } },
{ "type": "Feature", "properties": { "HIFLD_ID": null, "SubID": "S-0840", "HIFLD_Name": null, "Name": "Porter's Neck", "StateShort": "NC", "StateFull": "North Carolina", "latitude": "34.3028473665", "longitude": "-77.7919285696", "CurrentMax": "0", "CurrentMin": null, "PlanProj": "Wilmington Northeast Reliability Project", "PlanVolt": "230", "HIFLD": "New build, not listed in HIFLD", "ExistNew": "New build", "InPlanned": "Yes" }, "geometry": { "type": "Point", "coordinates": [ -77.791928569649997, 34.302847366509994 ] } },
{ "type": "Feature", "properties": { "HIFLD_ID": null, "SubID": "S-0659", "HIFLD_Name": null, "Name": "Madison County", "StateShort": "IN", "StateFull": "Indiana", "latitude": "39.9868475047", "longitude": "-85.6204482457", "CurrentMax": "0", "CurrentMin": null, "PlanProj": "Southeast Indiana", "PlanVolt": "345", "HIFLD": "New build, not listed in HIFLD", "ExistNew": "New build", "InPlanned": "Yes" }, "geometry": { "type": "Point", "coordinates": [ -85.620448245669991, 39.986847504679993 ] } },
{ "type": "Feature", "properties": { "HIFLD_ID": null, "SubID": "S-0726", "HIFLD_Name": null, "Name": "Sycolin Creek", "StateShort": "VA", "StateFull": "Virginia", "latitude": "39.0715951013", "longitude": "-77.5124680163", "CurrentMax": "0", "CurrentMin": null, "PlanProj": "Aspen - Sycolin Creek 230 kV Line, Sycolin Creek - Golden 230 kV Line", "PlanVolt": "230", "HIFLD": "New build, not listed in HIFLD", "ExistNew": "New build", "InPlanned": "Yes" }, "geometry": { "type": "Point", "coordinates": [ -77.512468016260001, 39.071595101299998 ] } },
{ "type": "Feature", "properties": { "HIFLD_ID": null, "SubID": "S-0983", "HIFLD_Name": null, "Name": "Dinosaur", "StateShort": null, "StateFull": null, "latitude": "0.0", "longitude": "0.0", "CurrentMax": null, "CurrentMin": null, "PlanProj": "Dinosaur - Longshore 765 kV Transmission Project", "PlanVolt": "765", "HIFLD": "Not listed in HIFLD", "ExistNew": "New", "InPlanned": "Yes" }, "geometry": { "type": "Point", "coordinates": [ -97.791978466569986, 32.27912271500999 ] } },
{ "type": "Feature", "properties": { "HIFLD_ID": null, "SubID": "S-0749", "HIFLD_Name": null, "Name": "Rusk", "StateShort": "TX", "StateFull": "Texas", "latitude": "32.0279625951", "longitude": "-94.6833095435", "CurrentMax": "0", "CurrentMin": null, "PlanProj": "Rusk to Panola", "PlanVolt": "345", "HIFLD": "New build, not listed in HIFLD", "ExistNew": "New build", "InPlanned": "Yes" }, "geometry": { "type": "Point", "coordinates": [ -94.683309543459998, 32.027962595129999 ] } },
{ "type": "Feature", "properties": { "HIFLD_ID": null, "SubID": "S-0690", "HIFLD_Name": null, "Name": "Dunham", "StateShort": "TX", "StateFull": "Texas", "latitude": "33.0527285862", "longitude": "-97.1942181302", "CurrentMax": "0", "CurrentMin": null, "PlanProj": "Roanoke Area Upgrades", "PlanVolt": "345", "HIFLD": "New build, not listed in HIFLD", "ExistNew": "New build", "InPlanned": "Yes" }, "geometry": { "type": "Point", "coordinates": [ -97.194218130159996, 33.052728586160001 ] } },
{ "type": "Feature", "properties": { "HIFLD_ID": null, "SubID": "S-0895", "HIFLD_Name": null, "Name": "French Camp", "StateShort": "CA", "StateFull": "California", "latitude": "37.8821179073", "longitude": "-121.290404168", "CurrentMax": "0", "CurrentMin": null, "PlanProj": "French Camp Reinforcement", "PlanVolt": "230", "HIFLD": "Not listed in HIFLD", "ExistNew": "Existing", "InPlanned": "Yes" }, "geometry": { "type": "Point", "coordinates": [ -121.290404168069983, 37.882117907339996 ] } },
{ "type": "Feature", "properties": { "HIFLD_ID": null, "SubID": "S-0780", "HIFLD_Name": null, "Name": "SunZia East", "StateShort": "NM", "StateFull": "New Mexico", "latitude": "34.1009914578", "longitude": "-105.674546276", "CurrentMax": "0", "CurrentMin": null, "PlanProj": "SunZia", "PlanVolt": "525", "HIFLD": "New build, not listed in HIFLD", "ExistNew": "New build", "InPlanned": "Yes" }, "geometry": { "type": "Point", "coordinates": [ -105.674546276409998, 34.10099145785 ] } },
{ "type": "Feature", "properties": { "HIFLD_ID": null, "SubID": "S-0792", "HIFLD_Name": null, "Name": "Carmel Church", "StateShort": "VA", "StateFull": "Virginia", "latitude": "37.9295584849", "longitude": "-77.4686219551", "CurrentMax": "0", "CurrentMin": null, "PlanProj": "Carmel Church 230 kV Electric Transmission Project", "PlanVolt": "230", "HIFLD": "New build, not listed in HIFLD", "ExistNew": "New build", "InPlanned": "Yes" }, "geometry": { "type": "Point", "coordinates": [ -77.468621955109981, 37.929558484859996 ] } },
{ "type": "Feature", "properties": { "HIFLD_ID": null, "SubID": "S-0609", "HIFLD_Name": null, "Name": "Limber", "StateShort": "UT", "StateFull": "Utah", "latitude": "40.4948136961", "longitude": "-112.502012658", "CurrentMax": "0", "CurrentMin": null, "PlanProj": "Gateway Central", "PlanVolt": "345", "HIFLD": "New build, not listed in HIFLD", "ExistNew": "New build", "InPlanned": "Yes" }, "geometry": { "type": "Point", "coordinates": [ -112.50201265794, 40.494813696149997 ] } },
{ "type": "Feature", "properties": { "HIFLD_ID": null, "SubID": "S-0835", "HIFLD_Name": null, "Name": "Potato Run", "StateShort": "VA", "StateFull": "Virginia", "latitude": "38.4282622115", "longitude": "-77.9070351472", "CurrentMax": "0", "CurrentMin": null, "PlanProj": "Culpeper Tech Zone 230 kV Project", "PlanVolt": "230", "HIFLD": "New build, not listed in HIFLD", "ExistNew": "New build", "InPlanned": "Yes" }, "geometry": { "type": "Point", "coordinates": [ -77.907035147199991, 38.428262211480003 ] } },
{ "type": "Feature", "properties": { "HIFLD_ID": null, "SubID": "S-0768", "HIFLD_Name": null, "Name": "Knickerbocker", "StateShort": "NY", "StateFull": "New York", "latitude": "42.506731438", "longitude": "-73.7363978555", "CurrentMax": "0", "CurrentMin": null, "PlanProj": null, "PlanVolt": "345", "HIFLD": "New build, not listed in HIFLD", "ExistNew": "New build", "InPlanned": "Yes" }, "geometry": { "type": "Point", "coordinates": [ -73.736397855459998, 42.506731437989998 ] } },
{ "type": "Feature", "properties": { "HIFLD_ID": null, "SubID": "S-0838", "HIFLD_Name": null, "Name": "Blackwell Road Option 2", "StateShort": "VA", "StateFull": "Virginia", "latitude": "38.6913211705", "longitude": "-77.773665051", "CurrentMax": "0", "CurrentMin": null, "PlanProj": "Blackwell Road 230 kV Project", "PlanVolt": "230", "HIFLD": "New build, not listed in HIFLD", "ExistNew": "New build", "InPlanned": "Yes" }, "geometry": { "type": "Point", "coordinates": [ -77.773665050959991, 38.69132117054 ] } },
{ "type": "Feature", "properties": { "HIFLD_ID": null, "SubID": "S-0649", "HIFLD_Name": null, "Name": "Lulu", "StateShort": "MI", "StateFull": "Michigan", "latitude": "41.8903212705", "longitude": "-83.6440628254", "CurrentMax": "0", "CurrentMin": null, "PlanProj": "Greentown - Sorenson - Lulu", "PlanVolt": "765", "HIFLD": "New build, not listed in HIFLD", "ExistNew": "New build", "InPlanned": "Yes" }, "geometry": { "type": "Point", "coordinates": [ -83.644062825359995, 41.89032127050001 ] } },
{ "type": "Feature", "properties": { "HIFLD_ID": null, "SubID": "S-0783", "HIFLD_Name": null, "Name": "Longhorn", "StateShort": "CO", "StateFull": "Colorado", "latitude": "37.6143234022", "longitude": "-102.383943645", "CurrentMax": "0", "CurrentMin": null, "PlanProj": "Colorado's Power Pathway", "PlanVolt": "345", "HIFLD": "New build, not listed in HIFLD", "ExistNew": "New build", "InPlanned": "Yes" }, "geometry": { "type": "Point", "coordinates": [ -102.383943645279984, 37.614323402219995 ] } },
{ "type": "Feature", "properties": { "HIFLD_ID": null, "SubID": "S-0866", "HIFLD_Name": null, "Name": "Grove", "StateShort": "CA", "StateFull": "California", "latitude": "37.2140720405", "longitude": "-121.734338359", "CurrentMax": "0", "CurrentMin": null, "PlanProj": "Power Santa Clara Valley", "PlanVolt": "500", "HIFLD": "New build, not listed in HIFLD", "ExistNew": "New build", "InPlanned": "Yes" }, "geometry": { "type": "Point", "coordinates": [ -121.734338359169996, 37.214072040459996 ] } },
{ "type": "Feature", "properties": { "HIFLD_ID": null, "SubID": "S-0619", "HIFLD_Name": null, "Name": "Badger Creek", "StateShort": "CO", "StateFull": "Colorado", "latitude": "40.0154873279", "longitude": "-103.83070462", "CurrentMax": "0", "CurrentMin": null, "PlanProj": "Eastern Colorado Transmission Expansion", "PlanVolt": "230", "HIFLD": "New build, not listed in HIFLD", "ExistNew": "New build", "InPlanned": "Yes" }, "geometry": { "type": "Point", "coordinates": [ -103.830704619950012, 40.015487327909995 ] } },
{ "type": "Feature", "properties": { "HIFLD_ID": null, "SubID": "S-0901", "HIFLD_Name": null, "Name": "Swan Lake Project", "StateShort": "OR", "StateFull": "Oregon", "latitude": "42.3546860996", "longitude": "-121.647296186", "CurrentMax": "0", "CurrentMin": null, "PlanProj": "Swan Lake Energy Storage Project", "PlanVolt": "230", "HIFLD": "New build, not listed in HIFLD", "ExistNew": "New build", "InPlanned": "Yes" }, "geometry": { "type": "Point", "coordinates": [ -121.647296185620007, 42.35468609958 ] } },
{ "type": "Feature", "properties": { "HIFLD_ID": null, "SubID": "S-0790", "HIFLD_Name": null, "Name": "Castle", "StateShort": "TX", "StateFull": "Texas", "latitude": "30.306093458", "longitude": "-95.8391577905", "CurrentMax": "0", "CurrentMin": null, "PlanProj": "Castle 230 kV Transmission Line and Substation Project", "PlanVolt": "230", "HIFLD": "New build, not listed in HIFLD", "ExistNew": "New build", "InPlanned": "Yes" }, "geometry": { "type": "Point", "coordinates": [ -95.839157790550004, 30.306093457959989 ] } },
{ "type": "Feature", "properties": { "HIFLD_ID": null, "SubID": "S-0944", "HIFLD_Name": null, "Name": "Adams Creek", "StateShort": null, "StateFull": null, "latitude": "0.0", "longitude": "0.0", "CurrentMax": null, "CurrentMin": null, "PlanProj": "Adams Creek - Robert 230 kV", "PlanVolt": "230", "HIFLD": "Not listed in HIFLD", "ExistNew": "Exisitng", "InPlanned": "Yes" }, "geometry": { "type": "Point", "coordinates": [ -89.870036009580005, 30.855343163709996 ] } },
{ "type": "Feature", "properties": { "HIFLD_ID": null, "SubID": "S-0754", "HIFLD_Name": null, "Name": "St. Anthony", "StateShort": "ND", "StateFull": "North Dakota", "latitude": "46.4577838972", "longitude": "-100.786649788", "CurrentMax": "0", "CurrentMin": null, "PlanProj": "North Plains Connector", "PlanVolt": "345", "HIFLD": "New build, not listed in HIFLD", "ExistNew": "New build", "InPlanned": "Yes" }, "geometry": { "type": "Point", "coordinates": [ -100.786649788359995, 46.457783897239992 ] } },
{ "type": "Feature", "properties": { "HIFLD_ID": null, "SubID": "S-0699", "HIFLD_Name": null, "Name": "Appalaches", "StateShort": "QC", "StateFull": "Quebec", "latitude": "46.1333406431", "longitude": "-71.3957128196", "CurrentMax": "0", "CurrentMin": null, "PlanProj": "Appalaches-Maine Interconnection", "PlanVolt": "735", "HIFLD": "Not listed in HIFLD", "ExistNew": "Existing", "InPlanned": "Yes" }, "geometry": { "type": "Point", "coordinates": [ -71.395712819590003, 46.133340643090001 ] } },
{ "type": "Feature", "properties": { "HIFLD_ID": null, "SubID": "S-0626", "HIFLD_Name": null, "Name": "Big Oaks", "StateShort": "MN", "StateFull": "Minnesota", "latitude": "45.356351032", "longitude": "-93.8746678307", "CurrentMax": "0", "CurrentMin": null, "PlanProj": "Alexandria to Big Oaks (Cassie's Crossing)", "PlanVolt": "345", "HIFLD": "New build, not listed in HIFLD", "ExistNew": "New build", "InPlanned": "Yes" }, "geometry": { "type": "Point", "coordinates": [ -93.874667830690001, 45.356351032029984 ] } },
{ "type": "Feature", "properties": { "HIFLD_ID": null, "SubID": "S-0766", "HIFLD_Name": null, "Name": "S3452", "StateShort": "NE", "StateFull": "Nebraska", "latitude": "41.5092596589", "longitude": "-96.1074655216", "CurrentMax": "0", "CurrentMin": null, "PlanProj": "Raun - S3452", "PlanVolt": "345", "HIFLD": "New build, not listed in HIFLD", "ExistNew": "New build", "InPlanned": "Yes" }, "geometry": { "type": "Point", "coordinates": [ -96.107465521630004, 41.50925965895 ] } },
{ "type": "Feature", "properties": { "HIFLD_ID": null, "SubID": "S-0789", "HIFLD_Name": null, "Name": "Middle Grove", "StateShort": "MO", "StateFull": "Missouri", "latitude": "39.366191", "longitude": "-92.1797649996", "CurrentMax": "0", "CurrentMin": null, "PlanProj": "Grain Belt Express", "PlanVolt": "600", "HIFLD": "New build, not listed in HIFLD", "ExistNew": "New build", "InPlanned": "Yes" }, "geometry": { "type": "Point", "coordinates": [ -92.179764999609986, 39.366190999959997 ] } },
{ "type": "Feature", "properties": { "HIFLD_ID": null, "SubID": "S-0978", "HIFLD_Name": null, "Name": "Phantom", "StateShort": "NM", "StateFull": "New Mexico", "latitude": "32.16316", "longitude": "-103.8525", "CurrentMax": null, "CurrentMin": null, "PlanProj": "Potter - Crossroads - Phantom 765 kV", "PlanVolt": "765", "HIFLD": "New build, not listed in HIFLD", "ExistNew": "New", "InPlanned": "Yes" }, "geometry": { "type": "Point", "coordinates": [ -103.852883471400006, 32.163722929519999 ] } },
{ "type": "Feature", "properties": { "HIFLD_ID": null, "SubID": "S-0801", "HIFLD_Name": null, "Name": "Stinger", "StateShort": "VA", "StateFull": "Virginia", "latitude": "38.7906552972", "longitude": "-77.5853625143", "CurrentMax": "0", "CurrentMin": null, "PlanProj": "Daves Store 230 kV Project", "PlanVolt": "230", "HIFLD": "New build, not listed in HIFLD", "ExistNew": "New build", "InPlanned": "Yes" }, "geometry": { "type": "Point", "coordinates": [ -77.585362514270003, 38.790655297210002 ] } },
{ "type": "Feature", "properties": { "HIFLD_ID": null, "SubID": "S-0899", "HIFLD_Name": null, "Name": "Ordinance Switchyard", "StateShort": "OR", "StateFull": "Oregon", "latitude": "45.8039403088", "longitude": "-119.380931987", "CurrentMax": "0", "CurrentMin": null, "PlanProj": "Umatilla-Morrow County Connect Project", "PlanVolt": "230", "HIFLD": "Not listed in HIFLD", "ExistNew": "Existing", "InPlanned": "Yes" }, "geometry": { "type": "Point", "coordinates": [ -119.380931987269989, 45.803940308830001 ] } },
{ "type": "Feature", "properties": { "HIFLD_ID": null, "SubID": "S-0713", "HIFLD_Name": null, "Name": "Mercers Bottom", "StateShort": "WV", "StateFull": "West Virginia", "latitude": "38.6422858595", "longitude": "-82.1603530543", "CurrentMax": "0", "CurrentMin": null, "PlanProj": "Sporn - Mercers Bottom 345 kV Line", "PlanVolt": "345", "HIFLD": "New build, not listed in HIFLD", "ExistNew": "New build", "InPlanned": "Yes" }, "geometry": { "type": "Point", "coordinates": [ -82.160353054299989, 38.64228585947 ] } },
{ "type": "Feature", "properties": { "HIFLD_ID": null, "SubID": "S-0906", "HIFLD_Name": null, "Name": "Manning", "StateShort": "CA", "StateFull": "California", "latitude": "36.5989362925", "longitude": "-120.606501001", "CurrentMax": "0", "CurrentMin": null, "PlanProj": "Manning 500/230 kV Substation Project, Greater Bay Area 500 kV Transmission Reinforcement", "PlanVolt": "500", "HIFLD": "New build, not listed in HIFLD", "ExistNew": "New build", "InPlanned": "Yes" }, "geometry": { "type": "Point", "coordinates": [ -120.606501000830008, 36.598936292530006 ] } },
{ "type": "Feature", "properties": { "HIFLD_ID": null, "SubID": "S-0741", "HIFLD_Name": null, "Name": "Copperhead", "StateShort": "PA", "StateFull": "Pennsylvania", "latitude": "40.2480083713", "longitude": "-76.8422648616", "CurrentMax": "0", "CurrentMin": null, "PlanProj": "Dauphin - Harrisburg 230 kV", "PlanVolt": "230", "HIFLD": "New build, not listed in HIFLD", "ExistNew": "New build", "InPlanned": "Yes" }, "geometry": { "type": "Point", "coordinates": [ -76.842264861640004, 40.248008371300003 ] } },
{ "type": "Feature", "properties": { "HIFLD_ID": null, "SubID": "S-0939", "HIFLD_Name": null, "Name": "Firebrick Wind Farm", "StateShort": null, "StateFull": null, "latitude": "0.0", "longitude": "0.0", "CurrentMax": null, "CurrentMin": null, "PlanProj": "New Firebrick Wind Farm (J1026)", "PlanVolt": "345", "HIFLD": "New build, not listed in HIFLD", "ExistNew": "New", "InPlanned": "Yes" }, "geometry": { "type": "Point", "coordinates": [ -91.644223660850002, 39.281067257240004 ] } },
{ "type": "Feature", "properties": { "HIFLD_ID": null, "SubID": "S-0689", "HIFLD_Name": null, "Name": "Ramhorn Hill", "StateShort": "TX", "StateFull": "Texas", "latitude": "33.0382431214", "longitude": "-97.4755125699", "CurrentMax": "0", "CurrentMin": null, "PlanProj": "Roanoke Area Upgrades", "PlanVolt": "345", "HIFLD": "New build, not listed in HIFLD", "ExistNew": "New build", "InPlanned": "Yes" }, "geometry": { "type": "Point", "coordinates": [ -97.475512569949998, 33.038243121419995 ] } },
{ "type": "Feature", "properties": { "HIFLD_ID": null, "SubID": "S-0823", "HIFLD_Name": null, "Name": "Devlin", "StateShort": "VA", "StateFull": "Virginia", "latitude": "38.7819430259", "longitude": "-77.5682402522", "CurrentMax": "0", "CurrentMin": null, "PlanProj": "Hornbaker - Devlin 230 kV Route Options", "PlanVolt": "230", "HIFLD": "New build, not listed in HIFLD", "ExistNew": "New build", "InPlanned": "Yes" }, "geometry": { "type": "Point", "coordinates": [ -77.568240252149991, 38.78194302592 ] } },
{ "type": "Feature", "properties": { "HIFLD_ID": null, "SubID": "S-0616", "HIFLD_Name": null, "Name": "Huckleberry", "StateShort": "CO", "StateFull": "Colorado", "latitude": "37.9649871204", "longitude": "-104.583033031", "CurrentMax": "0", "CurrentMin": null, "PlanProj": "Eastern Colorado Transmission Expansion", "PlanVolt": "230", "HIFLD": "New build, not listed in HIFLD", "ExistNew": "New build", "InPlanned": "Yes" }, "geometry": { "type": "Point", "coordinates": [ -104.583033030760006, 37.964987120399989 ] } },
{ "type": "Feature", "properties": { "HIFLD_ID": null, "SubID": "S-0772", "HIFLD_Name": null, "Name": "Haverstock", "StateShort": "NY", "StateFull": "New York", "latitude": "44.9761608151", "longitude": "-74.7970082943", "CurrentMax": "0", "CurrentMin": null, "PlanProj": null, "PlanVolt": "345", "HIFLD": "Not listed in HIFLD", "ExistNew": "Existing", "InPlanned": "Yes" }, "geometry": { "type": "Point", "coordinates": [ -74.797008294329999, 44.976160815130008 ] } },
{ "type": "Feature", "properties": { "HIFLD_ID": null, "SubID": "S-0842", "HIFLD_Name": null, "Name": "Holly Springs", "StateShort": "NC", "StateFull": "North Carolina", "latitude": "35.6440133377", "longitude": "-78.872859699", "CurrentMax": "0", "CurrentMin": null, "PlanProj": "Holly Springs Utley Creek Project", "PlanVolt": "230", "HIFLD": "New build, not listed in HIFLD", "ExistNew": "New build", "InPlanned": "Yes" }, "geometry": { "type": "Point", "coordinates": [ -78.872859698979994, 35.644013337689991 ] } },
{ "type": "Feature", "properties": { "HIFLD_ID": null, "SubID": "S-0653", "HIFLD_Name": null, "Name": "Woodford", "StateShort": "IL", "StateFull": "Illinois", "latitude": "40.7550713743", "longitude": "-88.9107289314", "CurrentMax": "0", "CurrentMin": null, "PlanProj": "Sub T - Woodford County - Collins & Reynolds", "PlanVolt": "765", "HIFLD": "New build, not listed in HIFLD", "ExistNew": "New build", "InPlanned": "Yes" }, "geometry": { "type": "Point", "coordinates": [ -88.910728931380007, 40.755071374339991 ] } },
{ "type": "Feature", "properties": { "HIFLD_ID": null, "SubID": "S-0720", "HIFLD_Name": null, "Name": "Hornbaker", "StateShort": "VA", "StateFull": "Virginia", "latitude": "38.7450935884", "longitude": "-77.5358262897", "CurrentMax": "0", "CurrentMin": null, "PlanProj": "Nokesville - Hornbaker 230 kV Line, Hornbaker - Devlin 230 kV Route Options", "PlanVolt": "230", "HIFLD": "New build, not listed in HIFLD", "ExistNew": "New build", "InPlanned": "Yes" }, "geometry": { "type": "Point", "coordinates": [ -77.535826289650004, 38.745093588429995 ] } },
{ "type": "Feature", "properties": { "HIFLD_ID": null, "SubID": "S-0930", "HIFLD_Name": null, "Name": "Legend", "StateShort": null, "StateFull": null, "latitude": "0.0", "longitude": "0.0", "CurrentMax": null, "CurrentMin": null, "PlanProj": "Cypress to Legend 500 kV line, Legend - Sandling 230 kV", "PlanVolt": "500", "HIFLD": "Not listed in HIFLD", "ExistNew": "New", "InPlanned": "Yes" }, "geometry": { "type": "Point", "coordinates": [ -94.010276695900004, 29.877364294169993 ] } },
{ "type": "Feature", "properties": { "HIFLD_ID": null, "SubID": "S-0684", "HIFLD_Name": null, "Name": "Connell", "StateShort": "TX", "StateFull": "Texas", "latitude": "32.1914321941", "longitude": "-102.063852306", "CurrentMax": "0", "CurrentMin": null, "PlanProj": "Rockhound - Connell 345 kV Double-Circuit Line", "PlanVolt": "345", "HIFLD": "Not listed in HIFLD", "ExistNew": "Existing", "InPlanned": "Yes" }, "geometry": { "type": "Point", "coordinates": [ -102.063852305969988, 32.191432194070003 ] } },
{ "type": "Feature", "properties": { "HIFLD_ID": null, "SubID": "S-0993", "HIFLD_Name": null, "Name": "Ashley Park", "StateShort": null, "StateFull": null, "latitude": "0.0", "longitude": "0.0", "CurrentMax": null, "CurrentMin": null, "PlanProj": "Ashley Park - Wansley 500 kV", "PlanVolt": "500", "HIFLD": "Not listed in HIFLD", "ExistNew": "New", "InPlanned": "Yes" }, "geometry": { "type": "Point", "coordinates": [ -84.487637422969982, 33.501432605189997 ] } },
{ "type": "Feature", "properties": { "HIFLD_ID": "148313", "SubID": "S-0342", "HIFLD_Name": "TAP148313", "Name": "Tap148313", "StateShort": "SC", "StateFull": "South Carolina", "latitude": "34.646058196", "longitude": "-79.857370768", "CurrentMax": "230", "CurrentMin": "230", "PlanProj": "Robinson Plant - Rockingham Line Upgrade", "PlanVolt": "230", "HIFLD": "Listed in HIFLD", "ExistNew": "Existing", "InPlanned": "Yes" }, "geometry": { "type": "Point", "coordinates": [ -79.857370768150005, 34.646058195679998 ] } },
{ "type": "Feature", "properties": { "HIFLD_ID": null, "SubID": "S-0794", "HIFLD_Name": null, "Name": "Finneywood", "StateShort": "VA", "StateFull": "Virginia", "latitude": "36.8451457994", "longitude": "-78.4511089906", "CurrentMax": "0", "CurrentMin": null, "PlanProj": "Jeffress 230 kV Project", "PlanVolt": "230", "HIFLD": "New build, not listed in HIFLD", "ExistNew": "New build", "InPlanned": "Yes" }, "geometry": { "type": "Point", "coordinates": [ -78.451108990589987, 36.845145799409998 ] } },
{ "type": "Feature", "properties": { "HIFLD_ID": null, "SubID": "S-0739", "HIFLD_Name": null, "Name": "Napoleon", "StateShort": "ND", "StateFull": "North Dakota", "latitude": "46.510159096", "longitude": "-99.7773996328", "CurrentMax": "0", "CurrentMin": null, "PlanProj": "27392-Wishek-Napoleon", "PlanVolt": "230", "HIFLD": "New build, not listed in HIFLD", "ExistNew": "New build", "InPlanned": "Yes" }, "geometry": { "type": "Point", "coordinates": [ -99.777399632799998, 46.51015909601999 ] } },
{ "type": "Feature", "properties": { "HIFLD_ID": null, "SubID": "S-0742", "HIFLD_Name": null, "Name": "Furnace Run", "StateShort": "PA", "StateFull": "Pennsylvania", "latitude": "39.8471334816", "longitude": "-76.4441745687", "CurrentMax": "0", "CurrentMin": null, "PlanProj": "Furnace Run - Conastone 230 kV", "PlanVolt": "230", "HIFLD": "New build, not listed in HIFLD", "ExistNew": "New build", "InPlanned": "Yes" }, "geometry": { "type": "Point", "coordinates": [ -76.444174568700006, 39.847133481599997 ] } },
{ "type": "Feature", "properties": { "HIFLD_ID": null, "SubID": "S-0884", "HIFLD_Name": null, "Name": "Fern Road", "StateShort": "CA", "StateFull": "California", "latitude": "40.6429805452", "longitude": "-121.936960578", "CurrentMax": "0", "CurrentMin": null, "PlanProj": "New Humboldt to Fern Road 500 kV Line", "PlanVolt": "500", "HIFLD": "New build, not listed in HIFLD", "ExistNew": "Existing", "InPlanned": "Yes" }, "geometry": { "type": "Point", "coordinates": [ -121.93696057828997, 40.642980545209994 ] } },
{ "type": "Feature", "properties": { "HIFLD_ID": null, "SubID": "S-0687", "HIFLD_Name": null, "Name": "Reiter", "StateShort": "TX", "StateFull": "Texas", "latitude": "31.8189909635", "longitude": "-102.309907731", "CurrentMax": "0", "CurrentMin": null, "PlanProj": "Reiter - Tesoro 345 kV Double-Circuit Line", "PlanVolt": "345", "HIFLD": "New build, not listed in HIFLD", "ExistNew": "New build", "InPlanned": "Yes" }, "geometry": { "type": "Point", "coordinates": [ -102.309907730799992, 31.818990963519997 ] } },
{ "type": "Feature", "properties": { "HIFLD_ID": null, "SubID": "S-0651", "HIFLD_Name": null, "Name": "Denver", "StateShort": "MI", "StateFull": "Michigan", "latitude": "43.7058084278", "longitude": "-84.5307814035", "CurrentMax": "0", "CurrentMin": null, "PlanProj": "Ludington- Denver- Tittabawassee & Nelson Road", "PlanVolt": "345", "HIFLD": "New build, not listed in HIFLD", "ExistNew": "New build", "InPlanned": "Yes" }, "geometry": { "type": "Point", "coordinates": [ -84.530781403540004, 43.705808427789989 ] } },
{ "type": "Feature", "properties": { "HIFLD_ID": null, "SubID": "S-0718", "HIFLD_Name": null, "Name": "Kraken", "StateShort": "VA", "StateFull": "Virginia", "latitude": "38.1319437968", "longitude": "-77.4639096644", "CurrentMax": "0", "CurrentMin": null, "PlanProj": "Kraken - Yeat 500 kV Line, North Anna - Kraken 500 kV Line", "PlanVolt": "500", "HIFLD": "New build, not listed in HIFLD", "ExistNew": "New build", "InPlanned": "Yes" }, "geometry": { "type": "Point", "coordinates": [ -77.463909664430005, 38.131943796799995 ] } },
{ "type": "Feature", "properties": { "HIFLD_ID": null, "SubID": "S-0805", "HIFLD_Name": null, "Name": "Evans Creek", "StateShort": "VA", "StateFull": "Virginia", "latitude": "36.7048562583", "longitude": "-78.0675214535", "CurrentMax": "0", "CurrentMin": null, "PlanProj": "South Hill 230 kV Project", "PlanVolt": "230", "HIFLD": "New build, not listed in HIFLD", "ExistNew": "New build", "InPlanned": "Yes" }, "geometry": { "type": "Point", "coordinates": [ -78.067521453529992, 36.704856258280003 ] } },
{ "type": "Feature", "properties": { "HIFLD_ID": null, "SubID": "S-0682", "HIFLD_Name": null, "Name": "Ranger Camp", "StateShort": "TX", "StateFull": "Texas", "latitude": "32.3485050923", "longitude": "-100.912680991", "CurrentMax": "0", "CurrentMin": null, "PlanProj": "Ranger Camp – Cattleman 345 kV Double-Circuit Line, Ranger Camp – Prong Moss 345 kV Line Rebuild, Tonkawa - Ranger Camp 345 kV Line Rebuild", "PlanVolt": "345", "HIFLD": "Not listed in HIFLD", "ExistNew": "Existing", "InPlanned": "Yes" }, "geometry": { "type": "Point", "coordinates": [ -100.912680990979993, 32.348505092330001 ] } },
{ "type": "Feature", "properties": { "HIFLD_ID": null, "SubID": "S-0808", "HIFLD_Name": null, "Name": "White Mountain", "StateShort": "VA", "StateFull": "Virginia", "latitude": "37.3595014005", "longitude": "-77.3219001323", "CurrentMax": "0", "CurrentMin": null, "PlanProj": null, "PlanVolt": "230", "HIFLD": "New build, not listed in HIFLD", "ExistNew": "New build", "InPlanned": "Yes" }, "geometry": { "type": "Point", "coordinates": [ -77.321900132340005, 37.359501400539997 ] } },
{ "type": "Feature", "properties": { "HIFLD_ID": null, "SubID": "S-0990", "HIFLD_Name": null, "Name": "Rockville", "StateShort": null, "StateFull": null, "latitude": "0.0", "longitude": "0.0", "CurrentMax": null, "CurrentMin": null, "PlanProj": "East Walton - Rockville 500 kV, Rockville - Tiger Creek 500 kV", "PlanVolt": "500", "HIFLD": "Not listed in HIFLD", "ExistNew": "New", "InPlanned": "Yes" }, "geometry": { "type": "Point", "coordinates": [ -83.187865188269981, 33.323854438239991 ] } },
{ "type": "Feature", "properties": { "HIFLD_ID": null, "SubID": "S-0753", "HIFLD_Name": null, "Name": "Garvin", "StateShort": "MN", "StateFull": "Minnesota", "latitude": "44.2305476464", "longitude": "-95.7497093532", "CurrentMax": "0", "CurrentMin": null, "PlanProj": "MN Energy Connection Route Options", "PlanVolt": "345", "HIFLD": "New build, not listed in HIFLD", "ExistNew": "New build", "InPlanned": "Yes" }, "geometry": { "type": "Point", "coordinates": [ -95.749709353179995, 44.230547646369999 ] } },
{ "type": "Feature", "properties": { "HIFLD_ID": null, "SubID": "S-0717", "HIFLD_Name": null, "Name": "Yeat", "StateShort": "VA", "StateFull": "Virginia", "latitude": "38.5796771134", "longitude": "-77.5889445402", "CurrentMax": "0", "CurrentMin": null, "PlanProj": "Joshua Falls - Yeat 765 kV Line, Kraken - Yeat 500 kV Line", "PlanVolt": "765", "HIFLD": "New build, not listed in HIFLD", "ExistNew": "New build", "InPlanned": "Yes" }, "geometry": { "type": "Point", "coordinates": [ -77.58894454017998, 38.57967711341 ] } },
{ "type": "Feature", "properties": { "HIFLD_ID": null, "SubID": "S-0658", "HIFLD_Name": null, "Name": "Indian Creek", "StateShort": "IN", "StateFull": "Indiana", "latitude": "38.7196793712", "longitude": "-87.3377743549", "CurrentMax": "0", "CurrentMin": null, "PlanProj": "Southwest Indiana-Kentucky", "PlanVolt": "345", "HIFLD": "New build, not listed in HIFLD", "ExistNew": "New build", "InPlanned": "Yes" }, "geometry": { "type": "Point", "coordinates": [ -87.337774354849984, 38.719679371220003 ] } },
{ "type": "Feature", "properties": { "HIFLD_ID": "138492", "SubID": "S-0918", "HIFLD_Name": "TAP138492", "Name": "East Palmerton", "StateShort": "PA", "StateFull": "Pennsylvania", "latitude": "40.828938088", "longitude": "-75.576021691", "CurrentMax": "69", "CurrentMin": "69", "PlanProj": "Siegfried - Harwood 230 kV", "PlanVolt": "230", "HIFLD": "Listed in HIFLD", "ExistNew": "Existing", "InPlanned": "Yes" }, "geometry": { "type": "Point", "coordinates": [ -75.576021690789986, 40.828938087890002 ] } },
{ "type": "Feature", "properties": { "HIFLD_ID": null, "SubID": "S-0748", "HIFLD_Name": null, "Name": "Panola", "StateShort": "TX", "StateFull": "Texas", "latitude": "32.092904947", "longitude": "-94.0450274889", "CurrentMax": "0", "CurrentMin": null, "PlanProj": "Rusk to Panola", "PlanVolt": "345", "HIFLD": "New build, not listed in HIFLD", "ExistNew": "New build", "InPlanned": "Yes" }, "geometry": { "type": "Point", "coordinates": [ -94.045027488870005, 32.09290494703 ] } },
{ "type": "Feature", "properties": { "HIFLD_ID": null, "SubID": "S-0693", "HIFLD_Name": null, "Name": "Expanse", "StateShort": "TX", "StateFull": "Texas", "latitude": "32.349558965", "longitude": "-101.87612142", "CurrentMax": "0", "CurrentMin": null, "PlanProj": "Expanse - Tredway 138 kV Line", "PlanVolt": "138", "HIFLD": "Not listed in HIFLD", "ExistNew": "Existing", "InPlanned": "Yes" }, "geometry": { "type": "Point", "coordinates": [ -101.876121420290005, 32.349558965020002 ] } },
{ "type": "Feature", "properties": { "HIFLD_ID": null, "SubID": "S-0760", "HIFLD_Name": null, "Name": "Fort Churchill", "StateShort": "NV", "StateFull": "Nevada", "latitude": "39.1318415957", "longitude": "-119.146921075", "CurrentMax": "0", "CurrentMin": null, "PlanProj": "Greenlink West, Greenlink North", "PlanVolt": "525", "HIFLD": "New build, not listed in HIFLD", "ExistNew": "New build", "InPlanned": "Yes" }, "geometry": { "type": "Point", "coordinates": [ -119.146921074499971, 39.131841595649995 ] } },
{ "type": "Feature", "properties": { "HIFLD_ID": null, "SubID": "S-0705", "HIFLD_Name": null, "Name": "Rocky Point", "StateShort": "VA", "StateFull": "Virginia", "latitude": "39.2483894561", "longitude": "-77.4986892917", "CurrentMax": "0", "CurrentMin": null, "PlanProj": "John Amos - Welton Spring - Rocky Point 765 kV Line", "PlanVolt": "765", "HIFLD": "New build, not listed in HIFLD", "ExistNew": "New build", "InPlanned": "Yes" }, "geometry": { "type": "Point", "coordinates": [ -77.498689291719998, 39.2483894561 ] } },
{ "type": "Feature", "properties": { "HIFLD_ID": null, "SubID": "S-0632", "HIFLD_Name": null, "Name": "Skunk River", "StateShort": "IA", "StateFull": "Iowa", "latitude": "40.9868791383", "longitude": "-91.6330670937", "CurrentMax": "0", "CurrentMin": null, "PlanProj": "Ottumwa-Skunk River", "PlanVolt": "345", "HIFLD": "New build, not listed in HIFLD", "ExistNew": "New build", "InPlanned": "Yes" }, "geometry": { "type": "Point", "coordinates": [ -91.633067093730006, 40.986879138269998 ] } },
{ "type": "Feature", "properties": { "HIFLD_ID": null, "SubID": "S-0803", "HIFLD_Name": null, "Name": "Unity", "StateShort": "VA", "StateFull": "Virginia", "latitude": "36.8864965524", "longitude": "-78.1410815493", "CurrentMax": "0", "CurrentMin": null, "PlanProj": "South Hill 230 kV Project", "PlanVolt": "230", "HIFLD": "New build, not listed in HIFLD", "ExistNew": "New build", "InPlanned": "Yes" }, "geometry": { "type": "Point", "coordinates": [ -78.141081549269984, 36.886496552410001 ] } },
{ "type": "Feature", "properties": { "HIFLD_ID": null, "SubID": "S-0736", "HIFLD_Name": null, "Name": "Commodore", "StateShort": "LA", "StateFull": "Louisiana", "latitude": "30.2307108661", "longitude": "-91.2274561528", "CurrentMax": "0", "CurrentMin": null, "PlanProj": "28274-Commodore-Churchill", "PlanVolt": "500", "HIFLD": "New build, not listed in HIFLD", "ExistNew": "New build", "InPlanned": "Yes" }, "geometry": { "type": "Point", "coordinates": [ -91.227456152839991, 30.23071086605 ] } },
{ "type": "Feature", "properties": { "HIFLD_ID": null, "SubID": "S-0806", "HIFLD_Name": null, "Name": "Nebula", "StateShort": "VA", "StateFull": "Virginia", "latitude": "36.6521224471", "longitude": "-78.3564691524", "CurrentMax": "0", "CurrentMin": null, "PlanProj": "Nebula - Raines 230 kV Route Options", "PlanVolt": "230", "HIFLD": "New build, not listed in HIFLD", "ExistNew": "New build", "InPlanned": "Yes" }, "geometry": { "type": "Point", "coordinates": [ -78.356469152360006, 36.652122447089994 ] } },
{ "type": "Feature", "properties": { "HIFLD_ID": null, "SubID": "S-1017", "HIFLD_Name": null, "Name": "Big Smarr", "StateShort": "GA", "StateFull": "Georgia", "latitude": "0.0", "longitude": "0.0", "CurrentMax": null, "CurrentMin": null, "PlanProj": "Big Smarr - Tomochichi 500 kV", "PlanVolt": "500", "HIFLD": "New build, not listed in HIFLD", "ExistNew": "New", "InPlanned": "Yes" }, "geometry": { "type": "Point", "coordinates": [ -83.848298886120006, 32.971252349949992 ] } },
{ "type": "Feature", "properties": { "HIFLD_ID": null, "SubID": "S-0608", "HIFLD_Name": null, "Name": "Nevada-Oregon Border Substation", "StateShort": "OR", "StateFull": "Oregon", "latitude": "42.1045549945", "longitude": "-119.942815234", "CurrentMax": "0", "CurrentMin": null, "PlanProj": "Lower Columbia to Nevada-Oregon Border", "PlanVolt": "500", "HIFLD": "New build, not listed in HIFLD", "ExistNew": "New build", "InPlanned": "Yes" }, "geometry": { "type": "Point", "coordinates": [ -119.942815234349993, 42.104554994460003 ] } },
{ "type": "Feature", "properties": { "HIFLD_ID": null, "SubID": "S-0834", "HIFLD_Name": null, "Name": "Mt. Pony", "StateShort": "VA", "StateFull": "Virginia", "latitude": "38.4532068861", "longitude": "-77.9770068875", "CurrentMax": "0", "CurrentMin": null, "PlanProj": null, "PlanVolt": "230", "HIFLD": "New build, not listed in HIFLD", "ExistNew": "New build", "InPlanned": "Yes" }, "geometry": { "type": "Point", "coordinates": [ -77.977006887499996, 38.453206886070006 ] } },
{ "type": "Feature", "properties": { "HIFLD_ID": null, "SubID": "S-0841", "HIFLD_Name": null, "Name": "Morrisville", "StateShort": "NC", "StateFull": "North Carolina", "latitude": "35.8460608928", "longitude": "-78.8298015412", "CurrentMax": "0", "CurrentMin": null, "PlanProj": "Morrisville Industrial Transmission Line Project", "PlanVolt": "230", "HIFLD": "New build, not listed in HIFLD", "ExistNew": "New build", "InPlanned": "Yes" }, "geometry": { "type": "Point", "coordinates": [ -78.829801541189994, 35.846060892810002 ] } },
{ "type": "Feature", "properties": { "HIFLD_ID": null, "SubID": "S-0648", "HIFLD_Name": null, "Name": "East Adair", "StateShort": "IA", "StateFull": "Iowa", "latitude": "41.2766326749", "longitude": "-94.2529927871", "CurrentMax": "0", "CurrentMin": null, "PlanProj": "Lakeﬁeld Junction- East Adair", "PlanVolt": "765", "HIFLD": "New build, not listed in HIFLD", "ExistNew": "New build", "InPlanned": "Yes" }, "geometry": { "type": "Point", "coordinates": [ -94.252992787080004, 41.276632674920002 ] } },
{ "type": "Feature", "properties": { "HIFLD_ID": null, "SubID": "S-0727", "HIFLD_Name": null, "Name": "Blitz", "StateShort": "WI", "StateFull": "Wisconsin", "latitude": "42.8438180344", "longitude": "-89.1152348435", "CurrentMax": "0", "CurrentMin": null, "PlanProj": "28090-Blitz-Rockdale", "PlanVolt": "345", "HIFLD": "New build, not listed in HIFLD", "ExistNew": "New build", "InPlanned": "Yes" }, "geometry": { "type": "Point", "coordinates": [ -89.115234843489986, 42.843818034350008 ] } },
{ "type": "Feature", "properties": { "HIFLD_ID": null, "SubID": "S-0869", "HIFLD_Name": null, "Name": "Johnnie Corner", "StateShort": "NV", "StateFull": "Nevada", "latitude": "36.4333473679", "longitude": "-116.071452183", "CurrentMax": "0", "CurrentMin": null, "PlanProj": "Johnnie Corner - Beatty Upgrade Project", "PlanVolt": "230", "HIFLD": "New build, not listed in HIFLD", "ExistNew": "New build", "InPlanned": "Yes" }, "geometry": { "type": "Point", "coordinates": [ -116.071452182579989, 36.433347367929997 ] } },
{ "type": "Feature", "properties": { "HIFLD_ID": null, "SubID": "S-0979", "HIFLD_Name": null, "Name": "Springbrook", "StateShort": "ND", "StateFull": "North Dakota", "latitude": "0.0", "longitude": "0.0", "CurrentMax": null, "CurrentMin": null, "PlanProj": "Springbrook-Twelve Mile 345", "PlanVolt": "345", "HIFLD": "New build, not listed in HIFLD", "ExistNew": "New", "InPlanned": "Yes" }, "geometry": { "type": "Point", "coordinates": [ -103.540173264189988, 48.298658580229997 ] } },
{ "type": "Feature", "properties": { "HIFLD_ID": null, "SubID": "S-0676", "HIFLD_Name": null, "Name": "Reforzar", "StateShort": "TX", "StateFull": "Texas", "latitude": "27.2498947644", "longitude": "-98.0161240242", "CurrentMax": "0", "CurrentMin": null, "PlanProj": "Ajo to Reforzar: Construct New 345 kV Double Circuit Line, Cruce to Reforzar: Construct New 345 kV Double Circuit Line", "PlanVolt": "345", "HIFLD": "New build, not listed in HIFLD", "ExistNew": "New build", "InPlanned": "Yes" }, "geometry": { "type": "Point", "coordinates": [ -98.016124024159993, 27.249894764419999 ] } },
{ "type": "Feature", "properties": { "HIFLD_ID": null, "SubID": "S-0817", "HIFLD_Name": null, "Name": "Tributary", "StateShort": "VA", "StateFull": "Virginia", "latitude": "38.1578424185", "longitude": "-77.5083940343", "CurrentMax": "0", "CurrentMin": null, "PlanProj": "Tributary 230 kV Route Options", "PlanVolt": "230", "HIFLD": "New build, not listed in HIFLD", "ExistNew": "New build", "InPlanned": "Yes" }, "geometry": { "type": "Point", "coordinates": [ -77.508394034279988, 38.15784241851 ] } },
{ "type": "Feature", "properties": { "HIFLD_ID": null, "SubID": "S-0618", "HIFLD_Name": null, "Name": "Lamar", "StateShort": "CO", "StateFull": "Colorado", "latitude": "38.2099535494", "longitude": "-102.478995328", "CurrentMax": "0", "CurrentMin": null, "PlanProj": "Eastern Colorado Transmission Expansion", "PlanVolt": "230", "HIFLD": "Not listed in HIFLD", "ExistNew": "Existing", "InPlanned": "Yes" }, "geometry": { "type": "Point", "coordinates": [ -102.478995327830006, 38.209953549359994 ] } },
{ "type": "Feature", "properties": { "HIFLD_ID": null, "SubID": "S-0758", "HIFLD_Name": null, "Name": "Esmeralda", "StateShort": "NV", "StateFull": "Nevada", "latitude": "38.0088009962", "longitude": "-117.809696258", "CurrentMax": "0", "CurrentMin": null, "PlanProj": "Greenlink West", "PlanVolt": "525", "HIFLD": "New build, not listed in HIFLD", "ExistNew": "New build", "InPlanned": "Yes" }, "geometry": { "type": "Point", "coordinates": [ -117.809696257539983, 38.008800996239991 ] } },
{ "type": "Feature", "properties": { "HIFLD_ID": null, "SubID": "S-0781", "HIFLD_Name": null, "Name": "SunZia West", "StateShort": "AZ", "StateFull": "Arizona", "latitude": "32.600676359", "longitude": "-111.147421528", "CurrentMax": "0", "CurrentMin": null, "PlanProj": "SunZia", "PlanVolt": "525", "HIFLD": "New build, not listed in HIFLD", "ExistNew": "New build", "InPlanned": "Yes" }, "geometry": { "type": "Point", "coordinates": [ -111.147421528159995, 32.600676359040001 ] } },
{ "type": "Feature", "properties": { "HIFLD_ID": null, "SubID": "S-0630", "HIFLD_Name": null, "Name": "Denny", "StateShort": "MO", "StateFull": "Missouri", "latitude": "40.0112507063", "longitude": "-94.3539279604", "CurrentMax": "0", "CurrentMin": null, "PlanProj": "Northern Missouri Grid Transformation Program", "PlanVolt": "345", "HIFLD": "New build, not listed in HIFLD", "ExistNew": "New build", "InPlanned": "Yes" }, "geometry": { "type": "Point", "coordinates": [ -94.353927960429985, 40.011250706289992 ] } },
{ "type": "Feature", "properties": { "HIFLD_ID": null, "SubID": "S-0793", "HIFLD_Name": null, "Name": "Butler Farm", "StateShort": "VA", "StateFull": "Virginia", "latitude": "36.7790703077", "longitude": "-78.4649977453", "CurrentMax": "0", "CurrentMin": null, "PlanProj": null, "PlanVolt": "230", "HIFLD": "New build, not listed in HIFLD", "ExistNew": "New build", "InPlanned": "Yes" }, "geometry": { "type": "Point", "coordinates": [ -78.464997745280002, 36.779070307730009 ] } },
{ "type": "Feature", "properties": { "HIFLD_ID": null, "SubID": "S-0812", "HIFLD_Name": null, "Name": "Sycamore Springs Switching Station", "StateShort": "VA", "StateFull": "Virginia", "latitude": "37.3275352912", "longitude": "-77.3482324411", "CurrentMax": "0", "CurrentMin": null, "PlanProj": null, "PlanVolt": "230", "HIFLD": "New build, not listed in HIFLD", "ExistNew": "New build", "InPlanned": "Yes" }, "geometry": { "type": "Point", "coordinates": [ -77.348232441069996, 37.327535291159997 ] } },
{ "type": "Feature", "properties": { "HIFLD_ID": null, "SubID": "S-1009", "HIFLD_Name": null, "Name": "Centreport", "StateShort": null, "StateFull": null, "latitude": "0.0", "longitude": "0.0", "CurrentMax": null, "CurrentMin": null, "PlanProj": "Centreport 230 kV Electric Transmission Project", "PlanVolt": "230", "HIFLD": "New build, not listed in HIFLD", "ExistNew": "New", "InPlanned": "Yes" }, "geometry": { "type": "Point", "coordinates": [ -77.464549676409987, 38.390234029590005 ] } },
{ "type": "Feature", "properties": { "HIFLD_ID": null, "SubID": "S-0757", "HIFLD_Name": null, "Name": "Amargosa", "StateShort": "NV", "StateFull": "Nevada", "latitude": "36.7015862289", "longitude": "-116.612595099", "CurrentMax": "0", "CurrentMin": null, "PlanProj": "Greenlink West", "PlanVolt": "525", "HIFLD": "New build, not listed in HIFLD", "ExistNew": "New build", "InPlanned": "Yes" }, "geometry": { "type": "Point", "coordinates": [ -116.61259509896999, 36.701586228860002 ] } },
{ "type": "Feature", "properties": { "HIFLD_ID": null, "SubID": "S-0891", "HIFLD_Name": null, "Name": "Trout Canyon", "StateShort": "NV", "StateFull": "Nevada", "latitude": "36.0763656882", "longitude": "-115.780600445", "CurrentMax": "0", "CurrentMin": null, "PlanProj": null, "PlanVolt": "500", "HIFLD": "Not listed in HIFLD", "ExistNew": "Existing", "InPlanned": "Yes" }, "geometry": { "type": "Point", "coordinates": [ -115.780600445200008, 36.076365688179997 ] } },
{ "type": "Feature", "properties": { "HIFLD_ID": null, "SubID": "S-1018", "HIFLD_Name": null, "Name": "Tomochichi", "StateShort": "GA", "StateFull": "Georgia", "latitude": "0.0", "longitude": "0.0", "CurrentMax": null, "CurrentMin": null, "PlanProj": "Big Smarr - Tomochichi 500 kV", "PlanVolt": "500", "HIFLD": "New build, not listed in HIFLD", "ExistNew": "New", "InPlanned": "Yes" }, "geometry": { "type": "Point", "coordinates": [ -84.138121076829989, 33.273723410289996 ] } },
{ "type": "Feature", "properties": { "HIFLD_ID": null, "SubID": "S-0629", "HIFLD_Name": null, "Name": "Helix", "StateShort": "MI", "StateFull": "Michigan", "latitude": "42.4024440424", "longitude": "-84.8147009227", "CurrentMax": "0", "CurrentMin": null, "PlanProj": "Helix to Hiple, Helix - Tompkins", "PlanVolt": "345", "HIFLD": "New build, not listed in HIFLD", "ExistNew": "New build", "InPlanned": "Yes" }, "geometry": { "type": "Point", "coordinates": [ -84.814700922710003, 42.402444042440003 ] } },
{ "type": "Feature", "properties": { "HIFLD_ID": null, "SubID": "S-0733", "HIFLD_Name": null, "Name": "Badger Creek", "StateShort": "IA", "StateFull": "Iowa", "latitude": "41.4696690278", "longitude": "-93.9062421648", "CurrentMax": "0", "CurrentMin": null, "PlanProj": "27764-Badger Creek-Raccoon Trail", "PlanVolt": "345", "HIFLD": "New build, not listed in HIFLD", "ExistNew": "New build", "InPlanned": "Yes" }, "geometry": { "type": "Point", "coordinates": [ -93.906242164839981, 41.469669027750001 ] } },
{ "type": "Feature", "properties": { "HIFLD_ID": null, "SubID": "S-0674", "HIFLD_Name": null, "Name": "Tango", "StateShort": "TX", "StateFull": "Texas", "latitude": "28.6559608058", "longitude": "-97.9763341179", "CurrentMax": "0", "CurrentMin": null, "PlanProj": "Rebuild Pawnee to Tango into a double circuit", "PlanVolt": "345", "HIFLD": "Not listed in HIFLD", "ExistNew": "Existing", "InPlanned": "Yes" }, "geometry": { "type": "Point", "coordinates": [ -97.976334117929994, 28.655960805839999 ] } },
{ "type": "Feature", "properties": { "HIFLD_ID": null, "SubID": "S-0681", "HIFLD_Name": null, "Name": "Cruce", "StateShort": "TX", "StateFull": "Texas", "latitude": "27.2676347557", "longitude": "-98.5269094221", "CurrentMax": "0", "CurrentMin": null, "PlanProj": "Cenizo to Cruce: Construct New 345 kV Double Circuit Line, Cruce to Del Sol: Construct New 345 kV Double Circuit Line, Cruce to Reforzar: Construct New 345 kV Double Circuit Line, San Miguel to Cruce 345 kV lines", "PlanVolt": "345", "HIFLD": "New build, not listed in HIFLD", "ExistNew": "New build", "InPlanned": "Yes" }, "geometry": { "type": "Point", "coordinates": [ -98.526909422069991, 27.267634755659998 ] } },
{ "type": "Feature", "properties": { "HIFLD_ID": null, "SubID": "S-0898", "HIFLD_Name": null, "Name": "Hertel", "StateShort": "QC", "StateFull": "Quebec", "latitude": "45.409187217", "longitude": "-73.4285743772", "CurrentMax": "0", "CurrentMin": null, "PlanProj": "Hertel - New York Interconnection", "PlanVolt": "400", "HIFLD": "Not listed in HIFLD", "ExistNew": "Existing", "InPlanned": "Yes" }, "geometry": { "type": "Point", "coordinates": [ -73.428574377189989, 45.409187216959992 ] } },
{ "type": "Feature", "properties": { "HIFLD_ID": null, "SubID": "S-0779", "HIFLD_Name": null, "Name": "Wyoming Terminal", "StateShort": "WY", "StateFull": "Wyoming", "latitude": "41.7456667701", "longitude": "-107.156380336", "CurrentMax": "0", "CurrentMin": null, "PlanProj": "TransWest Express", "PlanVolt": "500", "HIFLD": "New build, not listed in HIFLD", "ExistNew": "New build", "InPlanned": "Yes" }, "geometry": { "type": "Point", "coordinates": [ -107.156380336409995, 41.745666770130001 ] } },
{ "type": "Feature", "properties": { "HIFLD_ID": null, "SubID": "S-0636", "HIFLD_Name": null, "Name": "Orient", "StateShort": "IA", "StateFull": "Iowa", "latitude": "41.1925761977", "longitude": "-94.4614251589", "CurrentMax": "0", "CurrentMin": null, "PlanProj": "Orient to IA/MO State Border", "PlanVolt": "345", "HIFLD": "Not listed in HIFLD", "ExistNew": "Existing", "InPlanned": "Yes" }, "geometry": { "type": "Point", "coordinates": [ -94.461425158940003, 41.192576197720001 ] } },
{ "type": "Feature", "properties": { "HIFLD_ID": null, "SubID": "S-0712", "HIFLD_Name": null, "Name": "Batavia", "StateShort": "MD", "StateFull": "Maryland", "latitude": "39.3157662047", "longitude": "-76.4975366031", "CurrentMax": "0", "CurrentMin": null, "PlanProj": "Reconductor Batavia - Riverside 230 kV Line", "PlanVolt": "230", "HIFLD": "New build, not listed in HIFLD", "ExistNew": "New build", "InPlanned": "Yes" }, "geometry": { "type": "Point", "coordinates": [ -76.497536603130001, 39.315766204729989 ] } },
{ "type": "Feature", "properties": { "HIFLD_ID": null, "SubID": "S-0657", "HIFLD_Name": null, "Name": "Pike County", "StateShort": "IN", "StateFull": "Indiana", "latitude": "38.5358437946", "longitude": "-87.224314382", "CurrentMax": "0", "CurrentMin": null, "PlanProj": "Southwest Indiana-Kentucky", "PlanVolt": "345", "HIFLD": "New build, not listed in HIFLD", "ExistNew": "New build", "InPlanned": "Yes" }, "geometry": { "type": "Point", "coordinates": [ -87.224314382029988, 38.535843794599998 ] } },
{ "type": "Feature", "properties": { "HIFLD_ID": null, "SubID": "S-0791", "HIFLD_Name": null, "Name": "Ruther Glen", "StateShort": "VA", "StateFull": "Virginia", "latitude": "38.0180323952", "longitude": "-77.4811894614", "CurrentMax": "0", "CurrentMin": null, "PlanProj": "Ruther Glen 230 kV Electric Transmission Project", "PlanVolt": "230", "HIFLD": "New build, not listed in HIFLD", "ExistNew": "New build", "InPlanned": "Yes" }, "geometry": { "type": "Point", "coordinates": [ -77.481189461399993, 38.018032395170003 ] } },
{ "type": "Feature", "properties": { "HIFLD_ID": null, "SubID": "S-0810", "HIFLD_Name": null, "Name": "Sloan Drive Switching Station", "StateShort": "VA", "StateFull": "Virginia", "latitude": "37.3491993703", "longitude": "-77.3108975191", "CurrentMax": "0", "CurrentMin": null, "PlanProj": null, "PlanVolt": "230", "HIFLD": "New build, not listed in HIFLD", "ExistNew": "New build", "InPlanned": "Yes" }, "geometry": { "type": "Point", "coordinates": [ -77.310897519129995, 37.349199370319994 ] } },
{ "type": "Feature", "properties": { "HIFLD_ID": null, "SubID": "S-0688", "HIFLD_Name": null, "Name": "Tesoro", "StateShort": "TX", "StateFull": "Texas", "latitude": "31.8508464858", "longitude": "-102.27752663", "CurrentMax": "0", "CurrentMin": null, "PlanProj": "Reiter - Tesoro 345 kV Double-Circuit Line", "PlanVolt": "345", "HIFLD": "Not listed in HIFLD", "ExistNew": "Existing", "InPlanned": "Yes" }, "geometry": { "type": "Point", "coordinates": [ -102.277526629579981, 31.850846485769992 ] } },
{ "type": "Feature", "properties": { "HIFLD_ID": null, "SubID": "S-0822", "HIFLD_Name": null, "Name": "Riverport", "StateShort": "SC", "StateFull": "South Carolina", "latitude": "32.2127962634", "longitude": "-81.0855170067", "CurrentMax": "0", "CurrentMin": null, "PlanProj": "Okatie - Riverport 230 kV", "PlanVolt": "230", "HIFLD": "New build, not listed in HIFLD", "ExistNew": "New build", "InPlanned": "Yes" }, "geometry": { "type": "Point", "coordinates": [ -81.085517006740005, 32.212796263369995 ] } },
{ "type": "Feature", "properties": { "HIFLD_ID": null, "SubID": "S-0627", "HIFLD_Name": null, "Name": "Cuyana Series Compensation Station", "StateShort": "MN", "StateFull": "Minnesota", "latitude": "46.4857524153", "longitude": "-94.0466419159", "CurrentMax": "0", "CurrentMin": null, "PlanProj": "Northland Reliability Project", "PlanVolt": "345", "HIFLD": "New build, not listed in HIFLD", "ExistNew": "New build", "InPlanned": "Yes" }, "geometry": { "type": "Point", "coordinates": [ -94.04664191594, 46.485752415269992 ] } },
{ "type": "Feature", "properties": { "HIFLD_ID": null, "SubID": "S-0767", "HIFLD_Name": null, "Name": "Guymon", "StateShort": "OK", "StateFull": "Oklahoma", "latitude": "36.5537141672", "longitude": "-101.335688109", "CurrentMax": "0", "CurrentMin": null, "PlanProj": "Three Corners Connector", "PlanVolt": "525", "HIFLD": "New build, not listed in HIFLD", "ExistNew": "New build", "InPlanned": "Yes" }, "geometry": { "type": "Point", "coordinates": [ -101.335688109179998, 36.553714167149998 ] } },
{ "type": "Feature", "properties": { "HIFLD_ID": null, "SubID": "S-0845", "HIFLD_Name": null, "Name": "Mondon Hill", "StateShort": "FL", "StateFull": "Florida", "latitude": "28.5538902424", "longitude": "-82.3666531302", "CurrentMax": "0", "CurrentMin": null, "PlanProj": "Brooksville West – Mondon Hill – Bushnell East", "PlanVolt": "230", "HIFLD": "New build, not listed in HIFLD", "ExistNew": "New build", "InPlanned": "Yes" }, "geometry": { "type": "Point", "coordinates": [ -82.366653130200007, 28.553890242350004 ] } },
{ "type": "Feature", "properties": { "HIFLD_ID": null, "SubID": "S-0652", "HIFLD_Name": null, "Name": "Muskego", "StateShort": "WI", "StateFull": "Wisconsin", "latitude": "42.8649673629", "longitude": "-88.1957452387", "CurrentMax": "0", "CurrentMin": null, "PlanProj": "Bluemond- Arcadian- Waukesha- Muskego- Elm Road- Racine", "PlanVolt": "345", "HIFLD": "New build, not listed in HIFLD", "ExistNew": "New build", "InPlanned": "Yes" }, "geometry": { "type": "Point", "coordinates": [ -88.195745238650005, 42.864967362870004 ] } },
{ "type": "Feature", "properties": { "HIFLD_ID": null, "SubID": "S-0786", "HIFLD_Name": null, "Name": "Sandstone", "StateShort": "CO", "StateFull": "Colorado", "latitude": "38.4082258973", "longitude": "-104.185569667", "CurrentMax": "0", "CurrentMin": null, "PlanProj": "Colorado's Power Pathway", "PlanVolt": "345", "HIFLD": "New build, not listed in HIFLD", "ExistNew": "New build", "InPlanned": "Yes" }, "geometry": { "type": "Point", "coordinates": [ -104.185569666660001, 38.408225897349993 ] } },
{ "type": "Feature", "properties": { "HIFLD_ID": null, "SubID": "S-0731", "HIFLD_Name": null, "Name": "Crossbuck", "StateShort": "IL", "StateFull": "Illinois", "latitude": "40.7526745399", "longitude": "-87.9905612404", "CurrentMax": "0", "CurrentMin": null, "PlanProj": "Central Illinois Grid Transformation Program", "PlanVolt": "345", "HIFLD": "New build, not listed in HIFLD", "ExistNew": "New build", "InPlanned": "Yes" }, "geometry": { "type": "Point", "coordinates": [ -87.990561240440002, 40.752674539869986 ] } },
{ "type": "Feature", "properties": { "HIFLD_ID": null, "SubID": "S-0922", "HIFLD_Name": null, "Name": "Clark County Logistics", "StateShort": null, "StateFull": null, "latitude": "0.0", "longitude": "0.0", "CurrentMax": null, "CurrentMin": null, "PlanProj": "Clark County Reliability Project 345 kV", "PlanVolt": "345", "HIFLD": "Not listed in HIFLD", "ExistNew": "New Build", "InPlanned": "Yes" }, "geometry": { "type": "Point", "coordinates": [ -85.666725775949999, 38.378141902039992 ] } },
{ "type": "Feature", "properties": { "HIFLD_ID": null, "SubID": "S-0876", "HIFLD_Name": null, "Name": "Alberhill", "StateShort": "CA", "StateFull": "California", "latitude": "33.7338908322", "longitude": "-117.41360218", "CurrentMax": "0", "CurrentMin": null, "PlanProj": "Alberhill System Project", "PlanVolt": "500", "HIFLD": "New build, not listed in HIFLD", "ExistNew": "New build", "InPlanned": "Yes" }, "geometry": { "type": "Point", "coordinates": [ -117.413602180019979, 33.73389083216 ] } },
{ "type": "Feature", "properties": { "HIFLD_ID": null, "SubID": "S-0991", "HIFLD_Name": null, "Name": "East Walton", "StateShort": null, "StateFull": null, "latitude": "0.0", "longitude": "0.0", "CurrentMax": null, "CurrentMin": null, "PlanProj": "East Walton - Rockville 500 kV, East Walton - Middle Fork 500 kV", "PlanVolt": "500", "HIFLD": "Not listed in HIFLD", "ExistNew": "New", "InPlanned": "Yes" }, "geometry": { "type": "Point", "coordinates": [ -83.580686012689995, 33.796379537079993 ] } },
{ "type": "Feature", "properties": { "HIFLD_ID": null, "SubID": "S-0762", "HIFLD_Name": null, "Name": "Cedar Hill", "StateShort": "ID", "StateFull": "Idaho", "latitude": "42.414649844", "longitude": "-114.254253813", "CurrentMax": "0", "CurrentMin": null, "PlanProj": "Gateway West", "PlanVolt": "500", "HIFLD": "New build, not listed in HIFLD", "ExistNew": "New build", "InPlanned": "Yes" }, "geometry": { "type": "Point", "coordinates": [ -114.254253812739989, 42.414649844 ] } },
{ "type": "Feature", "properties": { "HIFLD_ID": null, "SubID": "S-0710", "HIFLD_Name": null, "Name": "Rice", "StateShort": "PA", "StateFull": "Pennsylvania", "latitude": "39.9994560118", "longitude": "-77.5483686476", "CurrentMax": "0", "CurrentMin": null, "PlanProj": "Rice - Ringgold 230 kV Line", "PlanVolt": "230", "HIFLD": "New build, not listed in HIFLD", "ExistNew": "New build", "InPlanned": "Yes" }, "geometry": { "type": "Point", "coordinates": [ -77.5483686476, 39.999456011790002 ] } },
{ "type": "Feature", "properties": { "HIFLD_ID": null, "SubID": "S-0738", "HIFLD_Name": null, "Name": "Running Bear", "StateShort": "TX", "StateFull": "Texas", "latitude": "30.4479460333", "longitude": "-95.5421088114", "CurrentMax": "0", "CurrentMin": null, "PlanProj": "SETEX Area Reliability Project", "PlanVolt": "500", "HIFLD": "New build, not listed in HIFLD", "ExistNew": "New build", "InPlanned": "Yes" }, "geometry": { "type": "Point", "coordinates": [ -95.54210881138998, 30.447946033299996 ] } },
{ "type": "Feature", "properties": { "HIFLD_ID": null, "SubID": "S-0686", "HIFLD_Name": null, "Name": "Drill Hole", "StateShort": "TX", "StateFull": "Texas", "latitude": "31.9519692132", "longitude": "-104.076844021", "CurrentMax": "0", "CurrentMin": null, "PlanProj": "Construct Drill Hole – Riverton 345 kV Double-Circuit", "PlanVolt": "345", "HIFLD": "New build, not listed in HIFLD", "ExistNew": "New build", "InPlanned": "Yes" }, "geometry": { "type": "Point", "coordinates": [ -104.076844021099987, 31.951969213239991 ] } },
{ "type": "Feature", "properties": { "HIFLD_ID": null, "SubID": "S-0828", "HIFLD_Name": null, "Name": "Germanna", "StateShort": "VA", "StateFull": "Virginia", "latitude": "38.4371547853", "longitude": "-77.8721764017", "CurrentMax": "0", "CurrentMin": null, "PlanProj": null, "PlanVolt": "230", "HIFLD": "New build, not listed in HIFLD", "ExistNew": "New build", "InPlanned": "Yes" }, "geometry": { "type": "Point", "coordinates": [ -77.872176401690012, 38.437154785309993 ] } },
{ "type": "Feature", "properties": { "HIFLD_ID": null, "SubID": "S-0617", "HIFLD_Name": null, "Name": "Boone", "StateShort": "CO", "StateFull": "Colorado", "latitude": "38.3060127039", "longitude": "-104.139275682", "CurrentMax": "0", "CurrentMin": null, "PlanProj": "Eastern Colorado Transmission Expansion", "PlanVolt": "230", "HIFLD": "Not listed in HIFLD", "ExistNew": "Existing", "InPlanned": "Yes" }, "geometry": { "type": "Point", "coordinates": [ -104.139275681989986, 38.306012703859999 ] } },
{ "type": "Feature", "properties": { "HIFLD_ID": null, "SubID": "S-0843", "HIFLD_Name": null, "Name": "Noblesville West", "StateShort": "IN", "StateFull": "Indiana", "latitude": "40.042630816", "longitude": "-86.088927664", "CurrentMax": "0", "CurrentMin": null, "PlanProj": "Noblesville-Westfield Reliability Projects", "PlanVolt": "230", "HIFLD": "New build, not listed in HIFLD", "ExistNew": "New build", "InPlanned": "Yes" }, "geometry": { "type": "Point", "coordinates": [ -86.088927664039986, 40.042630815990002 ] } },
{ "type": "Feature", "properties": { "HIFLD_ID": null, "SubID": "S-0650", "HIFLD_Name": null, "Name": "Sabine Lake", "StateShort": "MI", "StateFull": "Michigan", "latitude": "42.7172740377", "longitude": "-84.0414072175", "CurrentMax": "0", "CurrentMin": null, "PlanProj": "Oneida- Sabine Lake- Blackfoot & Majestic", "PlanVolt": "345", "HIFLD": "New build, not listed in HIFLD", "ExistNew": "New build", "InPlanned": "Yes" }, "geometry": { "type": "Point", "coordinates": [ -84.04140721748, 42.717274037739998 ] } },
{ "type": "Feature", "properties": { "HIFLD_ID": null, "SubID": "S-0721", "HIFLD_Name": null, "Name": "Raines", "StateShort": "VA", "StateFull": "Virginia", "latitude": "36.706273029", "longitude": "-78.1292916301", "CurrentMax": "0", "CurrentMin": null, "PlanProj": "Nebula - Raines 230 kV Route Options", "PlanVolt": "230", "HIFLD": "New build, not listed in HIFLD", "ExistNew": "New build", "InPlanned": "Yes" }, "geometry": { "type": "Point", "coordinates": [ -78.12929163007999, 36.706273028970003 ] } },
{ "type": "Feature", "properties": { "HIFLD_ID": null, "SubID": "S-0804", "HIFLD_Name": null, "Name": "Tunstall", "StateShort": "VA", "StateFull": "Virginia", "latitude": "36.7378787241", "longitude": "-78.1040107006", "CurrentMax": "0", "CurrentMin": null, "PlanProj": "South Hill 230 kV Project", "PlanVolt": "230", "HIFLD": "New build, not listed in HIFLD", "ExistNew": "New build", "InPlanned": "Yes" }, "geometry": { "type": "Point", "coordinates": [ -78.104010700570001, 36.737878724099993 ] } },
{ "type": "Feature", "properties": { "HIFLD_ID": null, "SubID": "S-0886", "HIFLD_Name": null, "Name": "Collinsville", "StateShort": "CA", "StateFull": "California", "latitude": "38.081079425", "longitude": "-121.836610089", "CurrentMax": "0", "CurrentMin": null, "PlanProj": "New Humboldt to Collinsville 500 kV Line", "PlanVolt": "500", "HIFLD": "New build, not listed in HIFLD", "ExistNew": "New build", "InPlanned": "Yes" }, "geometry": { "type": "Point", "coordinates": [ -121.836610088930001, 38.081079424979997 ] } },
{ "type": "Feature", "properties": { "HIFLD_ID": null, "SubID": "S-0697", "HIFLD_Name": null, "Name": "Monteregie", "StateShort": "QC", "StateFull": "Quebec", "latitude": "45.4987885575", "longitude": "-72.7129666631", "CurrentMax": "0", "CurrentMin": null, "PlanProj": "New England Clean Power Link", "PlanVolt": "735", "HIFLD": "Not listed in HIFLD", "ExistNew": "Existing", "InPlanned": "Yes" }, "geometry": { "type": "Point", "coordinates": [ -72.712966663059987, 45.498788557519994 ] } },
{ "type": "Feature", "properties": { "HIFLD_ID": null, "SubID": "S-0831", "HIFLD_Name": null, "Name": "McDevitt", "StateShort": "VA", "StateFull": "Virginia", "latitude": "38.4613947572", "longitude": "-77.9908867641", "CurrentMax": "0", "CurrentMin": null, "PlanProj": null, "PlanVolt": "230", "HIFLD": "New build, not listed in HIFLD", "ExistNew": "New build", "InPlanned": "Yes" }, "geometry": { "type": "Point", "coordinates": [ -77.990886764139987, 38.461394757180003 ] } },
{ "type": "Feature", "properties": { "HIFLD_ID": null, "SubID": "S-0795", "HIFLD_Name": null, "Name": "Jeffress", "StateShort": "VA", "StateFull": "Virginia", "latitude": "36.6320533257", "longitude": "-78.5200374149", "CurrentMax": "0", "CurrentMin": null, "PlanProj": "Jeffress 230 kV Project", "PlanVolt": "230", "HIFLD": "New build, not listed in HIFLD", "ExistNew": "New build", "InPlanned": "Yes" }, "geometry": { "type": "Point", "coordinates": [ -78.520037414940006, 36.632053325649991 ] } },
{ "type": "Feature", "properties": { "HIFLD_ID": null, "SubID": "S-0728", "HIFLD_Name": null, "Name": "Hybar", "StateShort": "AR", "StateFull": "Arkansas", "latitude": "35.6821751041", "longitude": "-89.9623199651", "CurrentMax": "0", "CurrentMin": null, "PlanProj": "28139-Driver-Hybar", "PlanVolt": "230", "HIFLD": "New build, not listed in HIFLD", "ExistNew": "New build", "InPlanned": "Yes" }, "geometry": { "type": "Point", "coordinates": [ -89.962319965130007, 35.682175104149998 ] } },
{ "type": "Feature", "properties": { "HIFLD_ID": null, "SubID": "S-0985", "HIFLD_Name": null, "Name": "Toyah Creek", "StateShort": null, "StateFull": null, "latitude": "0.0", "longitude": "0.0", "CurrentMax": null, "CurrentMin": null, "PlanProj": "Creosote - Toyah Creek 345 kV Line", "PlanVolt": "345", "HIFLD": "Not listed in HIFLD", "ExistNew": "Existing", "InPlanned": "Yes" }, "geometry": { "type": "Point", "coordinates": [ -103.387735094060005, 31.367554731399999 ] } },
{ "type": "Feature", "properties": { "HIFLD_ID": null, "SubID": "S-0673", "HIFLD_Name": null, "Name": "Eastside", "StateShort": "TX", "StateFull": "Texas", "latitude": "29.4216216725", "longitude": "-98.3228610426", "CurrentMax": "0", "CurrentMin": null, "PlanProj": "Rebuild Spruce to Eastside Double Circuit", "PlanVolt": "345", "HIFLD": "New build, not listed in HIFLD", "ExistNew": "New build", "InPlanned": "Yes" }, "geometry": { "type": "Point", "coordinates": [ -98.322861042599996, 29.421621672499999 ] } },
{ "type": "Feature", "properties": { "HIFLD_ID": null, "SubID": "S-0885", "HIFLD_Name": null, "Name": "Humboldt 500kV", "StateShort": "CA", "StateFull": "California", "latitude": "40.7452881501", "longitude": "-124.159911229", "CurrentMax": "0", "CurrentMin": null, "PlanProj": "New Humboldt to Fern Road 500 kV Line", "PlanVolt": "500", "HIFLD": "New build, not listed in HIFLD", "ExistNew": "New build", "InPlanned": "Yes" }, "geometry": { "type": "Point", "coordinates": [ -124.159911228740015, 40.745288150140006 ] } },
{ "type": "Feature", "properties": { "HIFLD_ID": null, "SubID": "S-0692", "HIFLD_Name": null, "Name": "Tredway", "StateShort": "TX", "StateFull": "Texas", "latitude": "32.5718137231", "longitude": "-101.599579393", "CurrentMax": "0", "CurrentMin": null, "PlanProj": "Expanse - Tredway 138 kV Line", "PlanVolt": "138", "HIFLD": "New build, not listed in HIFLD", "ExistNew": "New build", "InPlanned": "Yes" }, "geometry": { "type": "Point", "coordinates": [ -101.599579392639995, 32.571813723089988 ] } },
{ "type": "Feature", "properties": { "HIFLD_ID": null, "SubID": "S-0897", "HIFLD_Name": null, "Name": "Nanticoke", "StateShort": "ON", "StateFull": "Ontario", "latitude": "42.800105165", "longitude": "-80.0558683524", "CurrentMax": "0", "CurrentMin": null, "PlanProj": "Lake Erie Connector", "PlanVolt": "320", "HIFLD": "Not listed in HIFLD", "ExistNew": "Existing", "InPlanned": "Yes" }, "geometry": { "type": "Point", "coordinates": [ -80.055868352389993, 42.800105164989994 ] } },
{ "type": "Feature", "properties": { "HIFLD_ID": null, "SubID": "S-0704", "HIFLD_Name": null, "Name": "Welton Springs", "StateShort": "WV", "StateFull": "West Virginia", "latitude": "39.1661917414", "longitude": "-78.9587015658", "CurrentMax": "0", "CurrentMin": null, "PlanProj": "John Amos - Welton Spring - Rocky Point 765 kV Line", "PlanVolt": "765", "HIFLD": "New build, not listed in HIFLD", "ExistNew": "New build", "InPlanned": "Yes" }, "geometry": { "type": "Point", "coordinates": [ -78.958701565769985, 39.16619174137 ] } },
{ "type": "Feature", "properties": { "HIFLD_ID": null, "SubID": "S-0904", "HIFLD_Name": null, "Name": "Pfister", "StateShort": "AZ", "StateFull": "Arizona", "latitude": "33.2274906151", "longitude": "-111.585838927", "CurrentMax": "0", "CurrentMin": null, "PlanProj": "Abel-Pfister-Ball 230 kV Transmission Project", "PlanVolt": "230", "HIFLD": "New build, not listed in HIFLD", "ExistNew": "New build", "InPlanned": "Yes" }, "geometry": { "type": "Point", "coordinates": [ -111.585838926549997, 33.227490615080001 ] } },
{ "type": "Feature", "properties": { "HIFLD_ID": null, "SubID": "S-0668", "HIFLD_Name": null, "Name": "Tableland", "StateShort": "SK", "StateFull": "Saskatchewan", "latitude": "49.0433406972", "longitude": "-103.17528917", "CurrentMax": "0", "CurrentMin": null, "PlanProj": "North Dakota/Saskatchewan Border (Tableland) - Tande 230 kV Ckt 1", "PlanVolt": "230", "HIFLD": "New build, not listed in HIFLD", "ExistNew": "New build", "InPlanned": "Yes" }, "geometry": { "type": "Point", "coordinates": [ -103.175289170420001, 49.043340697150001 ] } },
{ "type": "Feature", "properties": { "HIFLD_ID": null, "SubID": "S-0683", "HIFLD_Name": null, "Name": "Rockhound", "StateShort": "TX", "StateFull": "Texas", "latitude": "32.0756546695", "longitude": "-101.934503911", "CurrentMax": "0", "CurrentMin": null, "PlanProj": "Rockhound - Connell 345 kV Double-Circuit Line", "PlanVolt": "345", "HIFLD": "Not listed in HIFLD", "ExistNew": "Existing", "InPlanned": "Yes" }, "geometry": { "type": "Point", "coordinates": [ -101.934503910659998, 32.075654669519999 ] } },
{ "type": "Feature", "properties": { "HIFLD_ID": null, "SubID": "S-0809", "HIFLD_Name": null, "Name": "Meadowville Switching Station", "StateShort": "VA", "StateFull": "Virginia", "latitude": "37.3587188497", "longitude": "-77.328665166", "CurrentMax": "0", "CurrentMin": null, "PlanProj": null, "PlanVolt": "230", "HIFLD": "New build, not listed in HIFLD", "ExistNew": "New build", "InPlanned": "Yes" }, "geometry": { "type": "Point", "coordinates": [ -77.328665165979984, 37.35871884969 ] } },
{ "type": "Feature", "properties": { "HIFLD_ID": "305127", "SubID": "S-0549", "HIFLD_Name": "CASTRO VALLEY TAP", "Name": "Castro Valley Tap", "StateShort": "CA", "StateFull": "California", "latitude": "37.693301707", "longitude": "-122.042745513", "CurrentMax": "230", "CurrentMin": "230", "PlanProj": "Moraga-Castro Valley 230 kV Line Capacity Increase", "PlanVolt": "230", "HIFLD": "Listed in HIFLD", "ExistNew": "Existing", "InPlanned": "Yes" }, "geometry": { "type": "Point", "coordinates": [ -122.042745512819991, 37.693301706949995 ] } }
]
}
